NORAD_CAT_ID,OBJECT_NAME,OBJECT_TYPE,EPOCH,MEAN_MOTION,ECCENTRICITY,INCLINATION,RA_OF_ASC_NODE,ARG_OF_PERICENTER,MEAN_ANOMALY,BSTAR,MEAN_MOTION_DOT,MEAN_MOTION_DDOT,TLE_LINE0,TLE_LINE1,TLE_LINE2,SEMIMAJOR_AXIS,PERIOD,APOGEE,PERIGEE,DECAYED
51984.0,STARLINK-3664,PAYLOAD,2022-09-11 12:00:00,15.08809126,0.0001485,53.2177,3.6634,55.7556,197.3746,0.0028441,0.00045228,0.0,0 STARLINK-3664,1 51984U 22025AE  22254.50001157  .00045228  00000-0  28441-2 0  9994,2 51984  53.2177   3.6634 0001485  55.7556 197.3746 15.08809126 29656,6917.975,95.44,540.867,538.812,0.0
51984.0,STARLINK-3664,PAYLOAD,2022-09-11 14:00:01,15.08838119,0.0001536,53.2175,3.2896,52.7701,293.2441,-0.00011661,-2.143e-05,0.0,0 STARLINK-3664,1 51984U 22025AE  22254.58334491 -.00002143  00000-0 -11661-3 0  9990,2 51984  53.2175   3.2896 0001536  52.7701 293.2441 15.08838119  1300,6917.886,95.438,540.814,538.689,0.0
51984.0,STARLINK-3664,PAYLOAD,2022-09-11 22:00:00,15.08838476,0.0001520999999999,53.2172,1.7926,50.3197,307.2876,-0.00024142,-4.128e-05,0.0,0 STARLINK-3664,1 51984U 22025AE  22254.91667824 -.00004128  00000-0 -24142-3 0  9999,2 51984  53.2172   1.7926 0001521  50.3197 307.2876 15.08838476  1305,6917.885,95.438,540.802,538.698,0.0
51984.0,STARLINK-3664,PAYLOAD,2022-09-12 14:00:01,15.08842256,0.0001588999999999,53.2196,358.8054,57.7768,323.0782,-0.00043512,-7.207e-05,0.0,0 STARLINK-3664,1 51984U 22025AE  22255.58334491 -.00007207  00000-0 -43512-3 0  9997,2 51984  53.2196 358.8054 0001589  57.7768 323.0782 15.08842256 29817,6917.873000000001,95.437,540.8380000000002,538.639,0.0
51984.0,STARLINK-3664,PAYLOAD,2022-09-12 22:00:00,15.08857321,0.0001489,53.2193,357.3085,55.6292,336.8259,-0.0026089999999999,-0.0004158999999999,0.0,0 STARLINK-3664,1 51984U 22025AE  22255.91667824 -.00041590  00000-0 -26090-2 0  9997,2 51984  53.2193 357.3085 0001489  55.6292 336.8259 15.08857321  1304,6917.8269999999975,95.436,540.7230000000002,538.6619999999998,0.0
51984.0,STARLINK-3664,PAYLOAD,2022-09-13 14:00:01,15.08828116,0.0001573,53.2193,354.3168,56.569,359.0767,-0.00030378,-5.118e-05,0.0,0 STARLINK-3664,1 51984U 22025AE  22256.58334491 -.00005118  00000-0 -30378-3 0  9993,2 51984  53.2193 354.3168 0001573  56.5690 359.0767 15.08828116  1300,6917.917,95.438,540.87,538.694,0.0
51984.0,STARLINK-3664,PAYLOAD,2022-09-13 16:00:00,15.08819298,0.0001595,53.2189,353.9423,54.5569,93.9869,0.00080394,0.00012523,0.0,0 STARLINK-3664,1 51984U 22025AE  22256.66667824  .00012523  00000-0  80394-3 0  9990,2 51984  53.2189 353.9423 0001595  54.5569  93.9869 15.08819298 29983,6917.944,95.439,540.9119999999998,538.705,0.0
51984.0,STARLINK-3664,PAYLOAD,2022-09-13 22:00:00,15.08836148,0.0001457,53.2188,352.8192,55.4091,11.8104,-0.0025577,-0.00040759,0.0,0 STARLINK-3664,1 51984U 22025AE  22256.91667824 -.00040759  00000-0 -25577-2 0  9993,2 51984  53.2188 352.8192 0001457  55.4091  11.8104 15.08836148  1300,6917.892,95.438,540.765,538.749,0.0
51984.0,STARLINK-3664,PAYLOAD,2022-09-14 06:00:00,15.08806324,0.0001330999999999,53.219,351.3227,64.1353,14.6426,0.0023534,0.0003733,0.0,0 STARLINK-3664,1 51984U 22025AE  22257.25001157  .00037330  00000-0  23534-2 0  9992,2 51984  53.2190 351.3227 0001331  64.1353  14.6426 15.08806324 30061,6917.983,95.44,540.769,538.928,0.0
51984.0,STARLINK-3664,PAYLOAD,2022-09-14 14:00:01,15.08821943,0.0001469,53.2187,349.8282,56.0171,34.3319,0.00069396,0.00010768,0.0,0 STARLINK-3664,1 51984U 22025AE  22257.58334491  .00010768  00000-0  69396-3 0  9991,2 51984  53.2187 349.8282 0001469  56.0171  34.3319 15.08821943  1309,6917.936,95.439,540.817,538.784,0.0
51984.0,STARLINK-3664,PAYLOAD,2022-09-14 22:00:00,15.08850124,0.0001402,53.2183,348.331,55.9875,45.9359,-0.00118,-0.00019024,0.0,0 STARLINK-3664,1 51984U 22025AE  22257.91667824 -.00019024  00000-0 -11800-2 0  9999,2 51984  53.2183 348.3310 0001402  55.9875  45.9359 15.08850124 30168,6917.849,95.437,540.684,538.745,0.0
51984.0,STARLINK-3664,PAYLOAD,2022-09-15 14:00:01,15.08830442,0.0001412,53.2182,345.3393,52.8354,72.3084,0.0012304,0.00019343,0.0,0 STARLINK-3664,1 51984U 22025AE  22258.58334491  .00019343  00000-0  12304-2 0  9996,2 51984  53.2182 345.3393 0001412  52.8354  72.3084 15.08830442  1308,6917.91,95.438,540.751,538.798,0.0
51984.0,STARLINK-3664,PAYLOAD,2022-09-15 16:00:00,15.08815863,0.0001429,53.2182,344.9654,49.6941,168.3517,0.0037330999999999,0.00059587,0.0,0 STARLINK-3664,1 51984U 22025AE  22258.66667824  .00059587  00000-0  37331-2 0  9995,2 51984  53.2182 344.9654 0001429  49.6941 168.3517 15.08815863  1304,6917.954000000002,95.439,540.808,538.831,0.0
51984.0,STARLINK-3664,PAYLOAD,2022-09-16 11:42:17,15.08832688,0.0001457,53.2197,341.2777,57.3205,302.7927,0.00016742,2.377e-05,0.0,0 STARLINK-3664,1 51984U 22025AE  22259.48770464  .00002377  00000-0  16742-3 0  9990,2 51984  53.2197 341.2777 0001457  57.3205 302.7927 15.08832688 30402,6917.903,95.438,540.776,538.76,0.0
51984.0,STARLINK-3664,PAYLOAD,2022-09-16 14:53:03,15.08837359,0.0001478,53.2199,340.6826,58.1295,301.9841,0.00014868,2.079e-05,0.0,0 STARLINK-3664,1 51984U 22025AE  22259.62018296  .00002079  00000-0  14868-3 0  9990,2 51984  53.2199 340.6826 0001478  58.1295 301.9841 15.08837359 29328,6917.888000000001,95.438,540.776,538.731,0.0
51984.0,STARLINK-3664,PAYLOAD,2022-09-16 22:49:59,15.08843177,0.0001399,53.2197,339.1958,61.4451,298.6682,0.00016736,2.377e-05,0.0,0 STARLINK-3664,1 51984U 22025AE  22259.95137806  .00002377  00000-0  16736-3 0  9992,2 51984  53.2197 339.1958 0001399  61.4451 298.6682 15.08843177 30476,6917.871,95.437,540.703,538.768,0.0
51984.0,STARLINK-3664,PAYLOAD,2022-09-17 11:33:04,15.08844691,0.0001283,53.2199,336.8163,71.2686,288.8445,1.5362e-05,-4.3e-07,0.0,0 STARLINK-3664,1 51984U 22025AE  22260.48129916 -.00000043  00000-0  15362-4 0  9999,2 51984  53.2199 336.8163 0001283  71.2686 288.8445 15.08844691 29457,6917.866,95.437,540.619,538.8430000000002,0.0
51984.0,STARLINK-3664,PAYLOAD,2022-09-18 11:23:51,15.08840414,0.0001506,53.2196,332.3568,61.401,298.7134,4.2182e-05,3.83e-06,0.0,0 STARLINK-3664,1 51984U 22025AE  22261.47489991  .00000383  00000-0  42182-4 0  9997,2 51984  53.2196 332.3568 0001506  61.4010 298.7134 15.08840414 30708,6917.879,95.438,540.786,538.702,0.0
51984.0,STARLINK-3664,PAYLOAD,2022-09-18 14:34:37,15.08840674,0.000152,53.2196,331.7622,61.1593,298.9552,4.3922e-05,4.11e-06,0.0,0 STARLINK-3664,1 51984U 22025AE  22261.60737965  .00000411  00000-0  43922-4 0  9994,2 51984  53.2196 331.7622 0001520  61.1593 298.9552 15.08840674 29624,6917.878000000002,95.438,540.795,538.692,0.0
51984.0,STARLINK-3664,PAYLOAD,2022-09-19 11:14:38,15.08840819,0.000153,53.2191,327.8976,55.1408,304.9728,4.9763e-05,5.04e-06,0.0,0 STARLINK-3664,1 51984U 22025AE  22262.46849795  .00000504  00000-0  49763-4 0  9996,2 51984  53.2191 327.8976 0001530  55.1408 304.9728 15.08840819 29754,6917.878000000002,95.438,540.8009999999998,538.684,0.0
51984.0,STARLINK-3664,PAYLOAD,2022-09-20 01:33:07,15.08831443,0.0001585,53.2188,325.2216,52.6941,307.4195,1.7887e-05,-3e-08,0.0,0 STARLINK-3664,1 51984U 22025AE  22263.06466541 -.00000003  00000-0  17887-4 0  9994,2 51984  53.2188 325.2216 0001585  52.6941 307.4195 15.08831443 30945,6917.906999999997,95.438,540.868,538.675,0.0
51984.0,STARLINK-3664,PAYLOAD,2022-09-20 06:19:16,15.08835277,0.0001460999999999,53.2187,324.3289,57.865,302.2484,4.1922e-05,3.79e-06,0.0,0 STARLINK-3664,1 51984U 22025AE  22263.26338243  .00000379  00000-0  41922-4 0  9995,2 51984  53.2187 324.3289 0001461  57.8650 302.2484 15.08835277 29874,6917.895,95.438,540.771,538.749,0.0
51984.0,STARLINK-3664,PAYLOAD,2022-09-21 10:56:13,15.08835578,0.0001524,53.219,318.9776,50.1027,310.0099,5.2428e-05,5.46e-06,0.0,0 STARLINK-3664,1 51984U 22025AE  22264.45570687  .00000546  00000-0  52428-4 0  9996,2 51984  53.2190 318.9776 0001524  50.1027 310.0099 15.08835578 31159,6917.894,95.438,540.813,538.705,0.0
51984.0,STARLINK-3664,PAYLOAD,2022-09-21 20:28:31,15.0883727,0.0001526,53.2187,317.1929,54.3324,305.7811,0.00014347,1.996e-05,0.0,0 STARLINK-3664,1 51984U 22025AE  22264.85314378  .00001996  00000-0  14347-3 0  9990,2 51984  53.2187 317.1929 0001526  54.3324 305.7811 15.08837270 30113,6917.889,95.438,540.809,538.698,0.0
51984.0,STARLINK-3664,PAYLOAD,2022-09-21 23:39:18,15.08833806,0.0001778,53.2175,316.5981,58.8757,301.2409,3.6312e-05,2.9e-06,0.0,0 STARLINK-3664,1 51984U 22025AE  22264.98562994  .00000290  00000-0  36312-4 0  9996,2 51984  53.2175 316.5981 0001778  58.8757 301.2409 15.08833806 30136,6917.899,95.438,540.994,538.534,0.0
51984.0,STARLINK-3664,PAYLOAD,2022-09-22 23:30:05,15.08823696,0.0001925,53.2179,312.1373,60.1053,300.013,0.00029332,4.381e-05,0.0,0 STARLINK-3664,1 51984U 22025AE  22265.97923193  .00004381  00000-0  29332-3 0  9996,2 51984  53.2179 312.1373 0001925  60.1053 300.0130 15.08823696 31388,6917.93,95.439,541.127,538.464,0.0
51984.0,STARLINK-3664,PAYLOAD,2022-09-23 10:37:47,15.08842096,0.0001727,53.2193,310.0575,52.3007,307.8141,9.1395e-05,1.167e-05,0.0,0 STARLINK-3664,1 51984U 22025AE  22266.44290868  .00001167  00000-0  91395-4 0  9993,2 51984  53.2193 310.0575 0001727  52.3007 307.8141 15.08842096 30355,6917.874,95.437,540.934,538.544,0.0
51984.0,STARLINK-3664,PAYLOAD,2022-09-23 23:20:52,15.08834531,0.0001774,53.2186,307.6778,55.6589,304.4571,9.1426e-05,1.167e-05,0.0,0 STARLINK-3664,1 51984U 22025AE  22266.97283312  .00001167  00000-0  91426-4 0  9992,2 51984  53.2186 307.6778 0001774  55.6589 304.4571 15.08834531 31533,6917.897,95.438,540.989,538.535,0.0
51984.0,STARLINK-3664,PAYLOAD,2022-09-24 08:53:11,15.08834235,0.0001702,53.2184,305.8925,56.2416,303.8738,4.1269e-05,3.69e-06,0.0,0 STARLINK-3664,1 51984U 22025AE  22267.37027597  .00000369  00000-0  41269-4 0  9991,2 51984  53.2184 305.8925 0001702  56.2416 303.8738 15.08834235 30495,6917.898,95.438,540.94,538.586,0.0
